{
  "type": "FeatureCollection",
  "features": [
    {
      "type": "Feature",
      "properties": {
        "norad_id": 33618,
        "name": "FENGYUN 1C DEB",
        "group": "fengyun-1c-debris",
        "lat": 42.03700256096072,
        "lon": 81.6099023546702,
        "alt_km": 609.4902498626934,
        "timestamp": "2025-12-27T13:34:49.581906+00:00",
        "meta_object_name": "FENGYUN 1C DEB",
        "meta_object_id": "1999-025DDB",
        "meta_epoch": "2025-12-26T12:45:14.908320",
        "meta_mean_motion": 14.62259672,
        "meta_eccentricity": 0.0164874,
        "meta_inclination": 98.5292,
        "meta_ra_of_asc_node": 88.3178,
        "meta_arg_of_pericenter": 97.8781,
        "meta_mean_anomaly": 264.1169,
        "meta_ephemeris_type": 0,
        "meta_classification_type": "U",
        "meta_norad_cat_id": 33618,
        "meta_element_set_no": 999,
        "meta_rev_at_epoch": 96985,
        "meta_bstar": 0.00073718,
        "meta_mean_motion_dot": 4.462e-05,
        "meta_mean_motion_ddot": 0,
        "tle_line1": "1 33618U 99025DDB 25360.53142255  .00004462  00000+0  73718-3 0  9993",
        "tle_line2": "2 33618  98.5292  88.3178 0164874  97.8781 264.1169 14.62259672969853"
      },
      "geometry": {
        "type": "Point",
        "coordinates": [
          81.6099023546702,
          42.03700256096072
        ]
      }
    },
    {
      "type": "Feature",
      "properties": {
        "norad_id": 33619,
        "name": "FENGYUN 1C DEB",
        "group": "fengyun-1c-debris",
        "lat": 61.63208535224265,
        "lon": 54.1312677370213,
        "alt_km": 809.0770425426181,
        "timestamp": "2025-12-27T13:34:49.581916+00:00",
        "meta_object_name": "FENGYUN 1C DEB",
        "meta_object_id": "1999-025DDC",
        "meta_epoch": "2025-12-22T11:19:13.450944",
        "meta_mean_motion": 14.17552951,
        "meta_eccentricity": 0.00502437,
        "meta_inclination": 98.8607,
        "meta_ra_of_asc_node": 65.8437,
        "meta_arg_of_pericenter": 17.8745,
        "meta_mean_anomaly": 342.4183,
        "meta_ephemeris_type": 0,
        "meta_classification_type": "U",
        "meta_norad_cat_id": 33619,
        "meta_element_set_no": 999,
        "meta_rev_at_epoch": 63762,
        "meta_bstar": 0.0012593794,
        "meta_mean_motion_dot": 2.545e-05,
        "meta_mean_motion_ddot": 0,
        "tle_line1": "1 33619U 99025DDC 25356.47168346  .00002545  00000+0  12594-2 0  9995",
        "tle_line2": "2 33619  98.8607  65.8437 0050243  17.8745 342.4183 14.17552951637620"
      },
      "geometry": {
        "type": "Point",
        "coordinates": [
          54.1312677370213,
          61.63208535224265
        ]
      }
    },
    {
      "type": "Feature",
      "properties": {
        "norad_id": 33621,
        "name": "FENGYUN 1C DEB",
        "group": "fengyun-1c-debris",
        "lat": 73.41495102324825,
        "lon": -177.5727543627999,
        "alt_km": 1024.0261641665538,
        "timestamp": "2025-12-27T13:34:49.581926+00:00",
        "meta_object_name": "FENGYUN 1C DEB",
        "meta_object_id": "1999-025DDE",
        "meta_epoch": "2025-12-10T20:17:14.702784",
        "meta_mean_motion": 14.19482835,
        "meta_eccentricity": 0.02846988,
        "meta_inclination": 98.1391,
        "meta_ra_of_asc_node": 195.7496,
        "meta_arg_of_pericenter": 300.0128,
        "meta_mean_anomaly": 57.3079,
        "meta_ephemeris_type": 0,
        "meta_classification_type": "U",
        "meta_norad_cat_id": 33621,
        "meta_element_set_no": 999,
        "meta_rev_at_epoch": 64217,
        "meta_bstar": 0.00099524636,
        "meta_mean_motion_dot": 3.099e-05,
        "meta_mean_motion_ddot": 0,
        "tle_line1": "1 33621U 99025DDE 25344.84530906  .00003099  00000+0  99525-3 0  9996",
        "tle_line2": "2 33621  98.1391 195.7496 0284698 300.0128  57.3079 14.19482835642176"
      },
      "geometry": {
        "type": "Point",
        "coordinates": [
          -177.5727543627999,
          73.41495102324825
        ]
      }
    },
    {
      "type": "Feature",
      "properties": {
        "norad_id": 33625,
        "name": "FENGYUN 1C DEB",
        "group": "fengyun-1c-debris",
        "lat": 11.414236412364232,
        "lon": 111.09086359459913,
        "alt_km": 653.6658256207802,
        "timestamp": "2025-12-27T13:34:49.581935+00:00",
        "meta_object_name": "FENGYUN 1C DEB",
        "meta_object_id": "1999-025DDJ",
        "meta_epoch": "2025-12-22T18:29:10.172832",
        "meta_mean_motion": 14.61162738,
        "meta_eccentricity": 0.02254632,
        "meta_inclination": 98.6202,
        "meta_ra_of_asc_node": 107.8479,
        "meta_arg_of_pericenter": 104.3386,
        "meta_mean_anomaly": 258.2958,
        "meta_ephemeris_type": 0,
        "meta_classification_type": "U",
        "meta_norad_cat_id": 33625,
        "meta_element_set_no": 999,
        "meta_rev_at_epoch": 61537,
        "meta_bstar": 0.0010940286,
        "meta_mean_motion_dot": 7.684e-05,
        "meta_mean_motion_ddot": 0,
        "tle_line1": "1 33625U 99025DDJ 25356.77025663  .00007684  00000+0  10940-2 0  9991",
        "tle_line2": "2 33625  98.6202 107.8479 0225463 104.3386 258.2958 14.61162738615371"
      },
      "geometry": {
        "type": "Point",
        "coordinates": [
          111.09086359459913,
          11.414236412364232
        ]
      }
    },
    {
      "type": "Feature",
      "properties": {
        "norad_id": 33630,
        "name": "FENGYUN 1C DEB",
        "group": "fengyun-1c-debris",
        "lat": 14.170368933778274,
        "lon": 105.1277514046625,
        "alt_km": 738.4911310140451,
        "timestamp": "2025-12-27T13:34:49.581945+00:00",
        "meta_object_name": "FENGYUN 1C DEB",
        "meta_object_id": "1999-025DDP",
        "meta_epoch": "2025-12-25T00:32:20.779008",
        "meta_mean_motion": 14.17738798,
        "meta_eccentricity": 0.01347576,
        "meta_inclination": 98.616,
        "meta_ra_of_asc_node": 104.8539,
        "meta_arg_of_pericenter": 32.9099,
        "meta_mean_anomaly": 328.0377,
        "meta_ephemeris_type": 0,
        "meta_classification_type": "U",
        "meta_norad_cat_id": 33630,
        "meta_element_set_no": 999,
        "meta_rev_at_epoch": 64585,
        "meta_bstar": 0.000328385,
        "meta_mean_motion_dot": 6.9e-06,
        "meta_mean_motion_ddot": 0,
        "tle_line1": "1 33630U 99025DDP 25359.02246272  .00000690  00000+0  32839-3 0  9991",
        "tle_line2": "2 33630  98.6160 104.8539 0134757  32.9099 328.0377 14.17738798645859"
      },
      "geometry": {
        "type": "Point",
        "coordinates": [
          105.1277514046625,
          14.170368933778274
        ]
      }
    },
    {
      "type": "Feature",
      "properties": {
        "norad_id": 33633,
        "name": "FENGYUN 1C DEB",
        "group": "fengyun-1c-debris",
        "lat": 33.58401078090867,
        "lon": -77.75436191133142,
        "alt_km": 777.092192904257,
        "timestamp": "2025-12-27T13:34:49.581955+00:00",
        "meta_object_name": "FENGYUN 1C DEB",
        "meta_object_id": "1999-025DDS",
        "meta_epoch": "2025-12-20T05:05:42.485856",
        "meta_mean_motion": 14.19397127,
        "meta_eccentricity": 0.00829513,
        "meta_inclination": 99.057,
        "meta_ra_of_asc_node": 88.6497,
        "meta_arg_of_pericenter": 129.8844,
        "meta_mean_anomaly": 260.3067,
        "meta_ephemeris_type": 0,
        "meta_classification_type": "U",
        "meta_norad_cat_id": 33633,
        "meta_element_set_no": 999,
        "meta_rev_at_epoch": 90817,
        "meta_bstar": 0.0014541583,
        "meta_mean_motion_dot": 3.12e-05,
        "meta_mean_motion_ddot": 0,
        "tle_line1": "1 33633U 99025DDS 25354.21229729  .00003120  00000+0  14542-2 0  9999",
        "tle_line2": "2 33633  99.0570  88.6497 0082951 129.8844 260.3067 14.19397127908176"
      },
      "geometry": {
        "type": "Point",
        "coordinates": [
          -77.75436191133142,
          33.58401078090867
        ]
      }
    },
    {
      "type": "Feature",
      "properties": {
        "norad_id": 33637,
        "name": "FENGYUN 1C DEB",
        "group": "fengyun-1c-debris",
        "lat": -53.16573489504487,
        "lon": -145.15913380783692,
        "alt_km": 810.7289024474494,
        "timestamp": "2025-12-27T13:34:49.581965+00:00",
        "meta_object_name": "FENGYUN 1C DEB",
        "meta_object_id": "1999-025DDW",
        "meta_epoch": "2025-12-22T20:31:28.911936",
        "meta_mean_motion": 14.36813194,
        "meta_eccentricity": 0.008304,
        "meta_inclination": 98.4926,
        "meta_ra_of_asc_node": 41.7001,
        "meta_arg_of_pericenter": 121.6537,
        "meta_mean_anomaly": 239.2783,
        "meta_ephemeris_type": 0,
        "meta_classification_type": "U",
        "meta_norad_cat_id": 33637,
        "meta_element_set_no": 999,
        "meta_rev_at_epoch": 64983,
        "meta_bstar": 0.0011662,
        "meta_mean_motion_dot": 3.541e-05,
        "meta_mean_motion_ddot": 0,
        "tle_line1": "1 33637U 99025DDW 25356.85519574  .00003541  00000+0  11662-2 0  9992",
        "tle_line2": "2 33637  98.4926  41.7001 0083040 121.6537 239.2783 14.36813194649839"
      },
      "geometry": {
        "type": "Point",
        "coordinates": [
          -145.15913380783692,
          -53.16573489504487
        ]
      }
    }
  ]
}